BEACONC [HTS]           
1 01328C 65032A   15170.98750000 -.00000090  00000-0 -14214-3 0  1700
2 01328  41.1839 271.1323 0242227 304.9148  61.4719 13.38442264    15
BEACONC [SGF]           
1 01328C 65032A   15171.00000000 -.00000024  00000-0 -38427-4 0  1713
2 01328  41.1838 271.0792 0242192 304.9730 121.7083 13.38442258    18
STARLETTE [HTS]         
1 07646C 75010A   15170.98750000  .00000014  00000-0  10572-4 0  1704
2 07646  49.8227 112.4917 0205807 119.3561 175.1887 13.82297207    19
STARLETTE [SGF]         
1 07646C 75010A   15171.00000000 -.00000028  00000-0 -21738-4 0  1710
2 07646  49.8226 112.4417 0205806 119.3971 237.3925 13.82297321    18
LAGEOS1 [HTS]           
1 08820C 76039A   15170.97916667  .00000000  00000-0  00000-0 0  1709
2 08820 109.8371 243.9154 0043787  82.0413  53.7504  6.38664878    15
LAGEOS1 [JAX]           
1 08820C 76039A   15170.00000000  .00000000  00000-0  00000-0 0  1708
2 08820 109.8370 243.5798 0043790  82.2490 322.4582  6.38664889    19
LAGEOS1 [SGF]           
1 08820C 76039A   15171.00000000  .00000000  00000-0  00000-0 0  1710
2 08820 109.8371 243.9224 0043786  82.0355 101.6515  6.38664882    17
AJISAI [HTS]            
1 16908C 86061A   15170.98611111  .00000005  00000-0  34286-4 0  1700
2 16908  50.0080 253.6476 0011337  41.3021 128.3625 12.44481182    11
AJISAI [JAX]            
1 16908C 86061A   15170.00000000  .00000006  00000-0  44384-4 0  1703
2 16908  50.0082 256.6797 0011335  38.8235  30.4240 12.44481138    15
AJISAI [SGF]            
1 16908C 86061A   15171.00000000 -.00000005  00000-0 -35484-4 0  1717
2 16908  50.0080 253.6050 0011338  41.3193 190.6046 12.44481218    19
ETALON1 [HTS]           
1 19751C 89001C   15170.93750000  .00000000  00000-0  00000-0 0  1700
2 19751  64.1607 210.0156 0019692 207.9854 206.7209  2.13156599    14
ETALON1 [SGF]           
1 19751C 89001C   15171.00000000  .00000000  00000-0  00000-0 0  1718
2 19751  64.1607 210.0134 0019690 207.9923 254.6744  2.13156577    17
ETALON2 [HTS]           
1 20026C 89039C   15170.93750000 -.00000000  00000-0  00000-0 0  1709
2 20026  64.7019  87.6133 0016456 222.3512  31.6878  2.13204891    10
ETALON2 [SGF]           
1 20026C 89039C   15171.00000000 -.00000000  00000-0  00000-0 0  1717
2 20026  64.7019  87.6112 0016476 222.3044  79.7057  2.13204876    14
LAGEOS2 [HTS]           
1 22195C 92070B   15170.97916667 -.00000000  00000-0  00000-0 0  1704
2 22195  52.6622 284.3217 0138371 231.6378 191.8290  6.47294091    17
LAGEOS2 [JAX]           
1 22195C 92070B   15170.00000000 -.00000000  00000-0  00000-0 0  1703
2 22195  52.6627 284.9403 0138367 231.2088  70.1195  6.47294018    16
LAGEOS2 [SGF]           
1 22195C 92070B   15171.00000000 -.00000000  00000-0  00000-0 0  1715
2 22195  52.6624 284.3087 0138369 231.6458 240.3772  6.47294055    15
STELLA [HTS]            
1 22824C 93061B   15170.98750000 -.00000007  00000-0 -26896-5 0  1706
2 22824  98.7196 114.8260 0006499  16.5924 241.4220 14.27355175    13
STELLA [SGF]            
1 22824C 93061B   15171.00000000  .00000012  00000-0  47448-5 0  1719
2 22824  98.7195 114.8385 0006469  16.5945 305.6147 14.27355057    10
ENVISAT [AAS]           
1 27386C 02009A   15168.00000000  .00000103  00000-0  34224-4 0  1689
2 27386  98.3337 228.4412 0001224 102.3227 169.1508 14.37820397    15
ENVISAT [DLR]           
1 27386C 02009A   15171.00000000  .00000068  00000-0  22749-4 0  1716
2 27386  98.3337 231.3516 0001218 103.2614 207.6827 14.37820971    16
GRACEA [GFZ]            
1 27391C 02012A   15170.54148148  .00010520  00000-0  12939-3 0  1702
2 27391  88.9972  65.7790 0010949 121.1924 283.2059 15.60182552    19
GRACEB [GFZ]            
1 27392C 02012B   15170.66648148  .00010315  00000-0  12687-3 0  1703
2 27392  88.9978  65.8112 0010935 120.9384 263.2939 15.60186992    14
LARETS [HTS]            
1 27944C 03042F   15170.98750000 -.00000005  00000-0 -10499-5 0  1704
2 27944  97.8718 325.5213 0013282  47.2581  56.6098 14.63097900    16
LARETS [MCC]            
1 27944C 03042F   15169.98958333  .00000078  00000-0  15184-4 0  1692
2 27944  97.8717 324.5690 0013343  50.1815 200.6637 14.63097598    17
LARETS [SGF]            
1 27944C 03042F   15171.00000000  .00000002  00000-0  43298-6 0  1716
2 27944  97.8718 325.5331 0013319  47.1346 122.5329 14.63098083    19
GLONASS100 [COD]        
1 28915C 05050A   15170.99981482 -.00000000  00000-0  00000-0 0  1701
2 28915  65.1686  90.4321 0017188 350.9236 151.6844  2.13107384    10
GLONASS100 [NER]        
1 28915C 05050A   15171.00000000 -.00000000  00000-0  00000-0 0  1713
2 28915  65.1686  90.4321 0017205 350.8229 151.9272  2.13107379    13
GLONASS102 [COD]        
1 29670C 06062A   15170.99981482  .00000000  00000-0  00000-0 0  1703
2 29670  65.7750 329.3491 0020643 350.9004 217.4636  2.13105226    15
GLONASS102 [HTS]        
1 29670C 06062A   15170.93750000  .00000000  00000-0  00000-0 0  1707
2 29670  65.7750 329.3513 0020645 350.9044 169.6533  2.13105234    19
GLONASS102 [NER]        
1 29670C 06062A   15171.00000000  .00000000  00000-0  00000-0 0  1715
2 29670  65.7750 329.3490 0020666 350.9417 217.5644  2.13105227    18
GLONASS103 [COD]        
1 29671C 06062B   15170.99981482  .00000000  00000-0  00000-0 0  1704
2 29671  65.7920 329.4228 0017904 159.4264 272.4454  2.13103179    14
GLONASS103 [NER]        
1 29671C 06062B   15171.00000000  .00000000  00000-0  00000-0 0  1716
2 29671  65.7920 329.4227 0017887 159.4120 272.6020  2.13103162    17
GLONASS101 [COD]        
1 29672C 06062C   15170.99981482  .00000000  00000-0  00000-0 0  1705
2 29672  65.7768 329.3581 0017431 158.2278  90.9405  2.13102526    17
GLONASS101 [NER]        
1 29672C 06062C   15171.00000000  .00000000  00000-0  00000-0 0  1717
2 29672  65.7768 329.3580 0017421 158.1679  91.1425  2.13102532    11
TERRASARX [GFZ]         
1 31698C 07026A   15171.49981482  .00001674  00000-0  79856-4 0  1711
2 31698  97.4459 178.5430 0001643  95.2869 152.9677 15.19152217    10
GLONASS106 [COD]        
1 32275C 07052A   15170.99981482 -.00000000  00000-0  00000-0 0  1709
2 32275  65.1835  90.1957 0002812 283.1718 116.4688  2.13105014    15
GLONASS106 [NER]        
1 32275C 07052A   15171.00000000 -.00000000  00000-0  00000-0 0  1711
2 32275  65.1835  90.1956 0002834 283.3936 116.3891  2.13105015    18
GLONASS105 [COD]        
1 32276C 07052B   15170.99981482 -.00000000  00000-0  00000-0 0  1700
2 32276  65.1957  90.2555 0012973 339.0396  15.2720  2.13104531    14
GLONASS105 [NER]        
1 32276C 07052B   15171.00000000 -.00000000  00000-0  00000-0 0  1712
2 32276  65.1958  90.2554 0013004 338.9965  15.4571  2.13104523    17
GLONASS107 [COD]        
1 32393C 07065A   15170.99981482  .00000000  00000-0  00000-0 0  1703
2 32393  65.3959 328.8445 0005990 108.1959 186.6470  2.13103102    15
GLONASS107 [NER]        
1 32393C 07065A   15171.00000000  .00000000  00000-0  00000-0 0  1715
2 32393  65.3959 328.8444 0005999 108.1037 186.8812  2.13103108    18
GLONASS109 [COD]        
1 32395C 07065C   15170.99981482  .00000000  00000-0  00000-0 0  1705
2 32395  65.4089 328.8811 0016377   0.3911  26.4562  2.13103061    18
GLONASS109 [HTS]        
1 32395C 07065C   15170.93750000  .00000000  00000-0  00000-0 0  1709
2 32395  65.4089 328.8833 0016379   0.3927 338.6487  2.13103068    12
GLONASS109 [NER]        
1 32395C 07065C   15171.00000000  .00000000  00000-0  00000-0 0  1717
2 32395  65.4088 328.8810 0016384   0.3910  26.5984  2.13103046    15
JASON2 [CNE]            
1 33105C 08032A   15171.00000000 -.00000048  00000-0 -20772-3 0  1717
2 33105  66.0400 194.2502 0008431 270.9160 313.2790 12.80929646    17
JASON2 [HTS]            
1 33105C 08032A   15170.98611111 -.00000041  00000-0 -17804-3 0  1708
2 33105  66.0400 194.2792 0008429 270.9247 249.2302 12.80929641    13
JASON2 [SGF]            
1 33105C 08032A   15171.00000000 -.00000043  00000-0 -18472-3 0  1716
2 33105  66.0400 194.2502 0008430 270.9153 313.2797 12.80929658    18
GLONASS111 [HTS]        
1 33379C 08046B   15170.93750000 -.00000000  00000-0  00000-0 0  1703
2 33379  65.1111  89.6498 0017257 185.9125  75.4877  2.13101608    10
GLONASS116 [COD]        
1 36111C 09070A   15170.99981482  .00000000  00000-0  00000-0 0  1703
2 36111  64.1967 208.5172 0006170 295.7315 166.7514  2.13103189    17
GLONASS116 [NER]        
1 36111C 09070A   15171.00000000  .00000000  00000-0  00000-0 0  1715
2 36111  64.1967 208.5172 0006164 295.7899 166.8349  2.13103199    15
GLONASS117 [COD]        
1 36112C 09070B   15170.99981482  .00000000  00000-0  00000-0 0  1704
2 36112  64.1786 208.4524 0007120 185.2877  49.1965  2.13101762    18
GLONASS117 [NER]        
1 36112C 09070B   15171.00000000  .00000000  00000-0  00000-0 0  1716
2 36112  64.1786 208.4523 0007136 185.2688  49.3575  2.13101757    17
GLONASS118 [COD]        
1 36113C 09070C   15170.99981482  .00000000  00000-0  00000-0 0  1705
2 36113  64.1841 208.4554 0002280 285.9629 355.5462  2.13102213    17
GLONASS118 [HTS]        
1 36113C 09070C   15170.93750000  .00000000  00000-0  00000-0 0  1709
2 36113  64.1841 208.4576 0002279 285.9015 307.8018  2.13102217    19
GLONASS118 [NER]        
1 36113C 09070C   15171.00000000  .00000000  00000-0  00000-0 0  1717
2 36113  64.1841 208.4554 0002281 285.7148 355.9365  2.13102202    16
COMPASSG1 [SHA]         
1 36287C 10001A   15169.00000000 -.00000189  00000-0  00000-0 0  1698
2 36287   1.5507 356.3448 0002329 192.3314 217.3121  1.00274482    14
GLONASS119 [COD]        
1 36400C 10007A   15170.99981482 -.00000000  00000-0  00000-0 0  1707
2 36400  65.0897  89.3928 0029894 353.3445 274.8904  2.13102635    16
GLONASS119 [NER]        
1 36400C 10007A   15171.00000000 -.00000000  00000-0  00000-0 0  1719
2 36400  65.0897  89.3927 0029933 353.3031 275.0738  2.13102625    17
GLONASS121 [COD]        
1 36401C 10007B   15170.99981482 -.00000000  00000-0  00000-0 0  1708
2 36401  65.0825  89.3775 0006083  64.8863 113.8752  2.13102717    15
